start=new Date('2022-07-27T00:00:00.000Z').valueOf();
sats=[{"CLASSIFICATION_TYPE":"U","EPHEMERIS_TYPE":"0","OBJECT_TYPE":"PAYLOAD","MEAN_MOTION_DDOT":"0.0000000000000","SITE":"AFETR","LAUNCH_DATE":"2022-05-14","CENTER_NAME":"EARTH","MEAN_MOTION":"15.16561549","ARG_OF_PERICENTER":"59.8062","ECCENTRICITY":"0.00015430","OBJECT_ID":"2022-052W","MEAN_MOTION_DOT":"-0.01073381","OBJECT_NAME":"STARLINK-3983","COUNTRY_CODE":"US","INCLINATION":"53.2173","REF_FRAME":"TEME","DECAY_DATE":null,"EPOCH":"2022-07-26T22:00:00.999936","NORAD_CAT_ID":"52618","PERIOD":"94.952","PERIAPSIS":"515.180","TLE_LINE1":"1 52618U 22052W   22207.91667824 -.01073381  00000-0 -58653-1 0  9992","ELEMENT_SET_NO":"999","MEAN_ANOMALY":"191.0644","APOAPSIS":"517.308","GP_ID":"208932831","FILE":"3522469","TIME_SYSTEM":"UTC","RCS_SIZE":"LARGE","RA_OF_ASC_NODE":"82.8989","MEAN_ELEMENT_THEORY":"SGP4","SEMIMAJOR_AXIS":"6894.379","TLE_LINE2":"2 52618  53.2173  82.8989 0001543  59.8062 191.0644 15.16561549  1304","REV_AT_EPOCH":"130","BSTAR":"-0.05865300000000"},{"EPHEMERIS_TYPE":"0","CLASSIFICATION_TYPE":"U","OBJECT_TYPE":"PAYLOAD","SITE":"AFETR","MEAN_MOTION_DDOT":"0.0000000000000","LAUNCH_DATE":"2022-05-14","CENTER_NAME":"EARTH","MEAN_MOTION":"15.17054681","ARG_OF_PERICENTER":"73.4114","ECCENTRICITY":"0.00013760","OBJECT_ID":"2022-052X","MEAN_MOTION_DOT":"-0.01073938","COUNTRY_CODE":"US","OBJECT_NAME":"STARLINK-3741","INCLINATION":"53.2173","REF_FRAME":"TEME","DECAY_DATE":null,"EPOCH":"2022-07-26T22:00:00.999936","NORAD_CAT_ID":"52619","PERIOD":"94.921","PERIAPSIS":"513.801","TLE_LINE1":"1 52619U 22052X   22207.91667824 -.01073938  00000-0 -57861-1 0  9991","ELEMENT_SET_NO":"999","MEAN_ANOMALY":"206.0523","APOAPSIS":"515.698","GP_ID":"208932261","TIME_SYSTEM":"UTC","FILE":"3522469","RCS_SIZE":"LARGE","RA_OF_ASC_NODE":"82.9048","MEAN_ELEMENT_THEORY":"SGP4","TLE_LINE2":"2 52619  53.2173  82.9048 0001376  73.4114 206.0523 15.17054681  1304","SEMIMAJOR_AXIS":"6892.885","REV_AT_EPOCH":"130","BSTAR":"-0.05786100000000"},{"PERIOD":"95.437","NORAD_CAT_ID":"52620","PERIAPSIS":"538.485","DECAY_DATE":null,"EPOCH":"2022-07-26T22:00:00.999936","MEAN_ANOMALY":"290.7488","TLE_LINE1":"1 52620U 22052Y   22207.91667824 -.00020865  00000-0 -12962-2 0  9997","ELEMENT_SET_NO":"999","MEAN_ELEMENT_THEORY":"SGP4","GP_ID":"208932396","APOAPSIS":"540.929","RA_OF_ASC_NODE":"97.7889","RCS_SIZE":"LARGE","TIME_SYSTEM":"UTC","FILE":"3522469","TLE_LINE2":"2 52620  53.2166  97.7889 0001766  64.8456 290.7488 15.08852502  1309","SEMIMAJOR_AXIS":"6917.842","BSTAR":"-0.00129620000000","REV_AT_EPOCH":"130","CLASSIFICATION_TYPE":"U","EPHEMERIS_TYPE":"0","OBJECT_TYPE":"PAYLOAD","CENTER_NAME":"EARTH","SITE":"AFETR","MEAN_MOTION_DDOT":"0.0000000000000","LAUNCH_DATE":"2022-05-14","ARG_OF_PERICENTER":"64.8456","MEAN_MOTION":"15.08852502","OBJECT_ID":"2022-052Y","ECCENTRICITY":"0.00017660","COUNTRY_CODE":"US","OBJECT_NAME":"STARLINK-3975","REF_FRAME":"TEME","INCLINATION":"53.2166","MEAN_MOTION_DOT":"-0.00020865"},{"EPHEMERIS_TYPE":"0","CLASSIFICATION_TYPE":"U","OBJECT_TYPE":"PAYLOAD","CENTER_NAME":"EARTH","SITE":"AFETR","MEAN_MOTION_DDOT":"0.0000000000000","LAUNCH_DATE":"2022-05-14","ARG_OF_PERICENTER":"61.7231","MEAN_MOTION":"15.17713080","OBJECT_ID":"2022-052Z","ECCENTRICITY":"0.00013850","OBJECT_NAME":"STARLINK-3984","COUNTRY_CODE":"US","REF_FRAME":"TEME","INCLINATION":"53.2172","MEAN_MOTION_DOT":"-0.01075165","PERIOD":"94.880","NORAD_CAT_ID":"52621","PERIAPSIS":"511.802","DECAY_DATE":null,"EPOCH":"2022-07-26T22:00:00.999936","MEAN_ANOMALY":"254.0593","TLE_LINE1":"1 52621U 22052Z   22207.91667824 -.01075165  00000-0 -56842-1 0  9996","ELEMENT_SET_NO":"999","MEAN_ELEMENT_THEORY":"SGP4","GP_ID":"208932510","APOAPSIS":"513.711","RA_OF_ASC_NODE":"82.9124","RCS_SIZE":"LARGE","FILE":"3522469","TIME_SYSTEM":"UTC","TLE_LINE2":"2 52621  53.2172  82.9124 0001385  61.7231 254.0593 15.17713080  1306","SEMIMAJOR_AXIS":"6890.891","BSTAR":"-0.05684200000000","REV_AT_EPOCH":"130"},{"EPHEMERIS_TYPE":"0","CLASSIFICATION_TYPE":"U","OBJECT_TYPE":"PAYLOAD","MEAN_MOTION_DDOT":"0.0000000000000","SITE":"AFETR","LAUNCH_DATE":"2022-05-14","CENTER_NAME":"EARTH","MEAN_MOTION":"15.08853618","ARG_OF_PERICENTER":"82.5829","ECCENTRICITY":"0.00016740","OBJECT_ID":"2022-052AA","MEAN_MOTION_DOT":"-0.00018674","OBJECT_NAME":"STARLINK-4008","COUNTRY_CODE":"US","INCLINATION":"53.2173","REF_FRAME":"TEME","DECAY_DATE":null,"EPOCH":"2022-07-26T22:00:00.999936","NORAD_CAT_ID":"52622","PERIOD":"95.437","PERIAPSIS":"538.546","TLE_LINE1":"1 52622U 22052AA  22207.91667824 -.00018674  00000-0 -11578-2 0  9996","ELEMENT_SET_NO":"999","MEAN_ANOMALY":"113.0118","APOAPSIS":"540.862","GP_ID":"208932739","FILE":"3522469","TIME_SYSTEM":"UTC","RA_OF_ASC_NODE":"97.7783","RCS_SIZE":"LARGE","MEAN_ELEMENT_THEORY":"SGP4","SEMIMAJOR_AXIS":"6917.839","TLE_LINE2":"2 52622  53.2173  97.7783 0001674  82.5829 113.0118 15.08853618  1307","REV_AT_EPOCH":"130","BSTAR":"-0.00115780000000"},{"TLE_LINE1":"1 52623U 22052AB  22207.91667824 -.01075830  00000-0 -56405-1 0  9992","ELEMENT_SET_NO":"999","MEAN_ANOMALY":"272.7404","DECAY_DATE":null,"EPOCH":"2022-07-26T22:00:00.999936","PERIOD":"94.861","NORAD_CAT_ID":"52623","PERIAPSIS":"510.924","SEMIMAJOR_AXIS":"6890.014","TLE_LINE2":"2 52623  53.2172  82.9156 0001386  58.9175 272.7404 15.18002862  1307","BSTAR":"-0.05640500000000","REV_AT_EPOCH":"130","GP_ID":"208932624","APOAPSIS":"512.834","RA_OF_ASC_NODE":"82.9156","RCS_SIZE":"LARGE","TIME_SYSTEM":"UTC","FILE":"3522469","MEAN_ELEMENT_THEORY":"SGP4","MEAN_MOTION_DDOT":"0.0000000000000","SITE":"AFETR","LAUNCH_DATE":"2022-05-14","CENTER_NAME":"EARTH","CLASSIFICATION_TYPE":"U","EPHEMERIS_TYPE":"0","OBJECT_TYPE":"PAYLOAD","MEAN_MOTION_DOT":"-0.01075830","OBJECT_NAME":"STARLINK-3986","COUNTRY_CODE":"US","REF_FRAME":"TEME","INCLINATION":"53.2172","ARG_OF_PERICENTER":"58.9175","MEAN_MOTION":"15.18002862","OBJECT_ID":"2022-052AB","ECCENTRICITY":"0.00013860"},{"SEMIMAJOR_AXIS":"6892.681","TLE_LINE2":"2 52624  53.2173  82.9055 0001405  67.2608 216.5273 15.17121914  1302","REV_AT_EPOCH":"130","BSTAR":"-0.05775600000000","MEAN_ELEMENT_THEORY":"SGP4","APOAPSIS":"515.515","GP_ID":"208932034","FILE":"3522469","TIME_SYSTEM":"UTC","RCS_SIZE":"LARGE","RA_OF_ASC_NODE":"82.9055","MEAN_ANOMALY":"216.5273","TLE_LINE1":"1 52624U 22052AC  22207.91667824 -.01074063  00000-0 -57756-1 0  9990","ELEMENT_SET_NO":"999","NORAD_CAT_ID":"52624","PERIOD":"94.917","PERIAPSIS":"513.578","DECAY_DATE":null,"EPOCH":"2022-07-26T22:00:00.999936","OBJECT_NAME":"STARLINK-4009","COUNTRY_CODE":"US","INCLINATION":"53.2173","REF_FRAME":"TEME","MEAN_MOTION_DOT":"-0.01074063","MEAN_MOTION":"15.17121914","ARG_OF_PERICENTER":"67.2608","ECCENTRICITY":"0.00014050","OBJECT_ID":"2022-052AC","CENTER_NAME":"EARTH","SITE":"AFETR","MEAN_MOTION_DDOT":"0.0000000000000","LAUNCH_DATE":"2022-05-14","CLASSIFICATION_TYPE":"U","EPHEMERIS_TYPE":"0","OBJECT_TYPE":"PAYLOAD"},{"NORAD_CAT_ID":"52625","PERIOD":"94.688","PERIAPSIS":"502.505","DECAY_DATE":null,"EPOCH":"2022-07-26T22:00:00.999936","MEAN_ANOMALY":"77.4646","TLE_LINE1":"1 52625U 22052AD  22207.91667824 -.01063206  00000-0 -52060-1 0  9991","ELEMENT_SET_NO":"999","MEAN_ELEMENT_THEORY":"SGP4","APOAPSIS":"504.496","GP_ID":"208932148","FILE":"3522469","TIME_SYSTEM":"UTC","RA_OF_ASC_NODE":"82.6084","RCS_SIZE":"LARGE","SEMIMAJOR_AXIS":"6881.635","TLE_LINE2":"2 52625  53.2174  82.6084 0001447  69.4241  77.4646 15.20776054  1309","REV_AT_EPOCH":"130","BSTAR":"-0.05206000000000","CLASSIFICATION_TYPE":"U","EPHEMERIS_TYPE":"0","OBJECT_TYPE":"PAYLOAD","CENTER_NAME":"EARTH","SITE":"AFETR","MEAN_MOTION_DDOT":"0.0000000000000","LAUNCH_DATE":"2022-05-14","MEAN_MOTION":"15.20776054","ARG_OF_PERICENTER":"69.4241","ECCENTRICITY":"0.00014470","OBJECT_ID":"2022-052AD","OBJECT_NAME":"STARLINK-3988","COUNTRY_CODE":"US","INCLINATION":"53.2174","REF_FRAME":"TEME","MEAN_MOTION_DOT":"-0.01063206"},{"GP_ID":"208932832","APOAPSIS":"514.671","RA_OF_ASC_NODE":"82.9090","RCS_SIZE":"LARGE","TIME_SYSTEM":"UTC","FILE":"3522469","MEAN_ELEMENT_THEORY":"SGP4","SEMIMAJOR_AXIS":"6891.786","TLE_LINE2":"2 52626  53.2173  82.9090 0001480  56.1744 243.6797 15.17417510  1306","BSTAR":"-0.05729700000000","REV_AT_EPOCH":"130","DECAY_DATE":null,"EPOCH":"2022-07-26T22:00:00.999936","PERIOD":"94.898","NORAD_CAT_ID":"52626","PERIAPSIS":"512.631","TLE_LINE1":"1 52626U 22052AE  22207.91667824 -.01074619  00000-0 -57297-1 0  9999","ELEMENT_SET_NO":"999","MEAN_ANOMALY":"243.6797","ARG_OF_PERICENTER":"56.1744","MEAN_MOTION":"15.17417510","OBJECT_ID":"2022-052AE","ECCENTRICITY":"0.00014800","MEAN_MOTION_DOT":"-0.01074619","COUNTRY_CODE":"US","OBJECT_NAME":"STARLINK-3990","REF_FRAME":"TEME","INCLINATION":"53.2173","EPHEMERIS_TYPE":"0","CLASSIFICATION_TYPE":"U","OBJECT_TYPE":"PAYLOAD","SITE":"AFETR","MEAN_MOTION_DDOT":"0.0000000000000","LAUNCH_DATE":"2022-05-14","CENTER_NAME":"EARTH"},{"CENTER_NAME":"EARTH","MEAN_MOTION_DDOT":"0.0000000000000","SITE":"AFETR","LAUNCH_DATE":"2022-05-14","EPHEMERIS_TYPE":"0","CLASSIFICATION_TYPE":"U","OBJECT_TYPE":"PAYLOAD","COUNTRY_CODE":"US","OBJECT_NAME":"STARLINK-3992","REF_FRAME":"TEME","INCLINATION":"53.2174","MEAN_MOTION_DOT":"-0.01064413","ARG_OF_PERICENTER":"59.8072","MEAN_MOTION":"15.19185007","OBJECT_ID":"2022-052AF","ECCENTRICITY":"0.00013540","MEAN_ANOMALY":"333.6476","TLE_LINE1":"1 52627U 22052AF  22207.91667824 -.01064413  00000-0 -54614-1 0  9991","ELEMENT_SET_NO":"999","PERIOD":"94.788","NORAD_CAT_ID":"52627","PERIAPSIS":"507.372","DECAY_DATE":null,"EPOCH":"2022-07-26T22:00:00.999936","SEMIMAJOR_AXIS":"6886.439","TLE_LINE2":"2 52627  53.2174  82.9281 0001354  59.8072 333.6476 15.19185007  1303","BSTAR":"-0.05461400000000","REV_AT_EPOCH":"130","MEAN_ELEMENT_THEORY":"SGP4","GP_ID":"208932262","APOAPSIS":"509.237","RCS_SIZE":"LARGE","RA_OF_ASC_NODE":"82.9281","FILE":"3522469","TIME_SYSTEM":"UTC"}];
